CCSDS_OMM_VERS = 2.0
CREATION_DATE  = 
ORIGINATOR     = 

OBJECT_NAME    = ALOS (DAICHI)
OBJECT_ID      = 2006-002A
CENTER_NAME    = EARTH
REF_FRAME      = TEME
TIME_SYSTEM    = UTC
MEAN_ELEMENT_THEORY = SGP/SGP4

EPOCH          = 2026-02-23T19:39:42.601248
MEAN_MOTION    = 14.69758919
ECCENTRICITY   = .0001504
INCLINATION    = 98.1195
RA_OF_ASC_NODE = 10.8470
ARG_OF_PERICENTER = 54.7734
MEAN_ANOMALY   = 305.3612

EPHEMERIS_TYPE = 0
CLASSIFICATION_TYPE = U
NORAD_CAT_ID   = 28931
ELEMENT_SET_NO = 999
REV_AT_EPOCH   = 7144
BSTAR          = .24507E-3
MEAN_MOTION_DOT = .1412E-4
MEAN_MOTION_DDOT = 0

CCSDS_OMM_VERS = 2.0
CREATION_DATE  = 
ORIGINATOR     = 

OBJECT_NAME    = H-2A R/B
OBJECT_ID      = 2006-002B
CENTER_NAME    = EARTH
REF_FRAME      = TEME
TIME_SYSTEM    = UTC
MEAN_ELEMENT_THEORY = SGP/SGP4

EPOCH          = 2026-02-23T08:30:31.114656
MEAN_MOTION    = 15.16087328
ECCENTRICITY   = .00521122
INCLINATION    = 98.2387
RA_OF_ASC_NODE = 200.1520
ARG_OF_PERICENTER = 290.5005
MEAN_ANOMALY   = 69.0636

EPHEMERIS_TYPE = 0
CLASSIFICATION_TYPE = U
NORAD_CAT_ID   = 28932
ELEMENT_SET_NO = 999
REV_AT_EPOCH   = 9226
BSTAR          = .5390056E-3
MEAN_MOTION_DOT = .10668E-3
MEAN_MOTION_DDOT = 0

CCSDS_OMM_VERS = 2.0
CREATION_DATE  = 
ORIGINATOR     = 

OBJECT_NAME    = RESURS-DK 1
OBJECT_ID      = 2006-021A
CENTER_NAME    = EARTH
REF_FRAME      = TEME
TIME_SYSTEM    = UTC
MEAN_ELEMENT_THEORY = SGP/SGP4

EPOCH          = 2026-02-23T20:20:10.100832
MEAN_MOTION    = 15.12649237
ECCENTRICITY   = .0002915
INCLINATION    = 69.9313
RA_OF_ASC_NODE = 272.8308
ARG_OF_PERICENTER = 175.7744
MEAN_ANOMALY   = 184.3447

EPHEMERIS_TYPE = 0
CLASSIFICATION_TYPE = U
NORAD_CAT_ID   = 29228
ELEMENT_SET_NO = 999
REV_AT_EPOCH   = 8543
BSTAR          = .13722E-3
MEAN_MOTION_DOT = .2297E-4
MEAN_MOTION_DDOT = 0

CCSDS_OMM_VERS = 2.0
CREATION_DATE  = 
ORIGINATOR     = 

OBJECT_NAME    = CZ-4B R/B
OBJECT_ID      = 2006-046C
CENTER_NAME    = EARTH
REF_FRAME      = TEME
TIME_SYSTEM    = UTC
MEAN_ELEMENT_THEORY = SGP/SGP4

EPOCH          = 2026-02-23T08:38:10.865472
MEAN_MOTION    = 15.16737765
ECCENTRICITY   = .00322459
INCLINATION    = 97.5624
RA_OF_ASC_NODE = 99.3066
ARG_OF_PERICENTER = 319.3420
MEAN_ANOMALY   = 40.5405

EPHEMERIS_TYPE = 0
CLASSIFICATION_TYPE = U
NORAD_CAT_ID   = 29507
ELEMENT_SET_NO = 999
REV_AT_EPOCH   = 5787
BSTAR          = .26829506E-3
MEAN_MOTION_DOT = .5261E-4
MEAN_MOTION_DDOT = 0

CCSDS_OMM_VERS = 2.0
CREATION_DATE  = 
ORIGINATOR     = 

OBJECT_NAME    = CZ-2C R/B
OBJECT_ID      = 2007-010B
CENTER_NAME    = EARTH
REF_FRAME      = TEME
TIME_SYSTEM    = UTC
MEAN_ELEMENT_THEORY = SGP/SGP4

EPOCH          = 2026-02-23T18:38:31.208640
MEAN_MOTION    = 14.20240889
ECCENTRICITY   = .0058413
INCLINATION    = 98.3974
RA_OF_ASC_NODE = 168.7536
ARG_OF_PERICENTER = 335.6961
MEAN_ANOMALY   = 24.1463

EPHEMERIS_TYPE = 0
CLASSIFICATION_TYPE = U
NORAD_CAT_ID   = 31114
ELEMENT_SET_NO = 999
REV_AT_EPOCH   = 97774
BSTAR          = .79225E-4
MEAN_MOTION_DOT = .131E-5
MEAN_MOTION_DDOT = 0

CCSDS_OMM_VERS = 2.0
CREATION_DATE  = 
ORIGINATOR     = 

OBJECT_NAME    = COSMO-SKYMED 1
OBJECT_ID      = 2007-023A
CENTER_NAME    = EARTH
REF_FRAME      = TEME
TIME_SYSTEM    = UTC
MEAN_ELEMENT_THEORY = SGP/SGP4

EPOCH          = 2026-02-23T19:45:41.167296
MEAN_MOTION    = 14.96421246
ECCENTRICITY   = .0001398
INCLINATION    = 97.8880
RA_OF_ASC_NODE = 245.7452
ARG_OF_PERICENTER = 85.0314
MEAN_ANOMALY   = 275.1067

EPHEMERIS_TYPE = 0
CLASSIFICATION_TYPE = U
NORAD_CAT_ID   = 31598
ELEMENT_SET_NO = 999
REV_AT_EPOCH   = 1283
BSTAR          = .32371E-3
MEAN_MOTION_DOT = .3611E-4
MEAN_MOTION_DDOT = 0

CCSDS_OMM_VERS = 2.0
CREATION_DATE  = 
ORIGINATOR     = 

OBJECT_NAME    = COSMOS 2428
OBJECT_ID      = 2007-029A
CENTER_NAME    = EARTH
REF_FRAME      = TEME
TIME_SYSTEM    = UTC
MEAN_ELEMENT_THEORY = SGP/SGP4

EPOCH          = 2026-02-23T10:42:56.770560
MEAN_MOTION    = 14.12941600
ECCENTRICITY   = .00082648
INCLINATION    = 70.9403
RA_OF_ASC_NODE = 233.2400
ARG_OF_PERICENTER = 292.4796
MEAN_ANOMALY   = 67.5450

EPHEMERIS_TYPE = 0
CLASSIFICATION_TYPE = U
NORAD_CAT_ID   = 31792
ELEMENT_SET_NO = 999
REV_AT_EPOCH   = 96208
BSTAR          = .12565502E-3
MEAN_MOTION_DOT = .186E-5
MEAN_MOTION_DDOT = 0

CCSDS_OMM_VERS = 2.0
CREATION_DATE  = 
ORIGINATOR     = 

OBJECT_NAME    = SL-16 R/B
OBJECT_ID      = 2007-029B
CENTER_NAME    = EARTH
REF_FRAME      = TEME
TIME_SYSTEM    = UTC
MEAN_ELEMENT_THEORY = SGP/SGP4

EPOCH          = 2026-02-23T16:43:17.618016
MEAN_MOTION    = 14.14836273
ECCENTRICITY   = .0002475
INCLINATION    = 70.9752
RA_OF_ASC_NODE = 201.7964
ARG_OF_PERICENTER = 280.7269
MEAN_ANOMALY   = 91.4451

EPHEMERIS_TYPE = 0
CLASSIFICATION_TYPE = U
NORAD_CAT_ID   = 31793
ELEMENT_SET_NO = 999
REV_AT_EPOCH   = 96339
BSTAR          = -.46473E-4
MEAN_MOTION_DOT = -.138E-5
MEAN_MOTION_DDOT = 0

CCSDS_OMM_VERS = 2.0
CREATION_DATE  = 
ORIGINATOR     = 

OBJECT_NAME    = KORONAS-FOTON
OBJECT_ID      = 2009-003A
CENTER_NAME    = EARTH
REF_FRAME      = TEME
TIME_SYSTEM    = UTC
MEAN_ELEMENT_THEORY = SGP/SGP4

EPOCH          = 2026-02-23T08:50:41.295264
MEAN_MOTION    = 15.42930270
ECCENTRICITY   = .00099708
INCLINATION    = 82.4297
RA_OF_ASC_NODE = 290.7635
ARG_OF_PERICENTER = 200.5418
MEAN_ANOMALY   = 159.5430

EPHEMERIS_TYPE = 0
CLASSIFICATION_TYPE = U
NORAD_CAT_ID   = 33504
ELEMENT_SET_NO = 999
REV_AT_EPOCH   = 94353
BSTAR          = .33591959E-3
MEAN_MOTION_DOT = .14835E-3
MEAN_MOTION_DDOT = 0

CCSDS_OMM_VERS = 2.0
CREATION_DATE  = 
ORIGINATOR     = 

OBJECT_NAME    = CZ-2C R/B
OBJECT_ID      = 2011-030B
CENTER_NAME    = EARTH
REF_FRAME      = TEME
TIME_SYSTEM    = UTC
MEAN_ELEMENT_THEORY = SGP/SGP4

EPOCH          = 2026-02-23T15:36:09.883296
MEAN_MOTION    = 14.81159659
ECCENTRICITY   = .0053669
INCLINATION    = 97.8520
RA_OF_ASC_NODE = 12.1975
ARG_OF_PERICENTER = 37.3679
MEAN_ANOMALY   = 140.9216

EPHEMERIS_TYPE = 0
CLASSIFICATION_TYPE = U
NORAD_CAT_ID   = 37731
ELEMENT_SET_NO = 999
REV_AT_EPOCH   = 78801
BSTAR          = .2132E-3
MEAN_MOTION_DOT = .1645E-4
MEAN_MOTION_DDOT = 0

CCSDS_OMM_VERS = 2.0
CREATION_DATE  = 
ORIGINATOR     = 

OBJECT_NAME    = H-2A R/B
OBJECT_ID      = 2012-025E
CENTER_NAME    = EARTH
REF_FRAME      = TEME
TIME_SYSTEM    = UTC
MEAN_ELEMENT_THEORY = SGP/SGP4

EPOCH          = 2026-02-23T17:47:12.649632
MEAN_MOTION    = 14.95033071
ECCENTRICITY   = .0044869
INCLINATION    = 98.4709
RA_OF_ASC_NODE = 20.6758
ARG_OF_PERICENTER = 0.3851
MEAN_ANOMALY   = 359.7394

EPHEMERIS_TYPE = 0
CLASSIFICATION_TYPE = U
NORAD_CAT_ID   = 38341
ELEMENT_SET_NO = 999
REV_AT_EPOCH   = 74613
BSTAR          = .32504E-3
MEAN_MOTION_DOT = .3559E-4
MEAN_MOTION_DDOT = 0

CCSDS_OMM_VERS = 2.0
CREATION_DATE  = 
ORIGINATOR     = 

OBJECT_NAME    = SHIJIAN-16 (SJ-16)
OBJECT_ID      = 2013-057A
CENTER_NAME    = EARTH
REF_FRAME      = TEME
TIME_SYSTEM    = UTC
MEAN_ELEMENT_THEORY = SGP/SGP4

EPOCH          = 2026-02-23T21:15:24.155136
MEAN_MOTION    = 14.92277419
ECCENTRICITY   = .001612
INCLINATION    = 74.9716
RA_OF_ASC_NODE = 211.2176
ARG_OF_PERICENTER = 147.8966
MEAN_ANOMALY   = 212.3207

EPHEMERIS_TYPE = 0
CLASSIFICATION_TYPE = U
NORAD_CAT_ID   = 39358
ELEMENT_SET_NO = 999
REV_AT_EPOCH   = 66944
BSTAR          = .10396E-3
MEAN_MOTION_DOT = .1035E-4
MEAN_MOTION_DDOT = 0

