ALOS (DAICHI)           
1 28931U 06002A   26054.81924307  .00001412  00000+0  24507-3 0  9990
2 28931  98.1195  10.8470 0001504  54.7734 305.3612 14.69758919 71443
H-2A R/B                
1 28932U 06002B   26054.35452679  .00010668  00000+0  53901-3 0  9991
2 28932  98.2387 200.1520 0052112 290.5005  69.0636 15.16087328 92265
RESURS-DK 1             
1 29228U 06021A   26054.84733913  .00002297  00000+0  13722-3 0  9994
2 29228  69.9313 272.8308 0002915 175.7744 184.3447 15.12649237 85439
CZ-4B R/B               
1 29507U 06046C   26054.35984798  .00005261  00000+0  26830-3 0  9994
2 29507  97.5624  99.3066 0032245 319.3420  40.5405 15.16737765 57872
CZ-2C R/B               
1 31114U 07010B   26054.77675010  .00000131  00000+0  79225-4 0  9991
2 31114  98.3974 168.7536 0058413 335.6961  24.1463 14.20240889977744
COSMO-SKYMED 1          
1 31598U 07023A   26054.82339314  .00003611  00000+0  32371-3 0  9997
2 31598  97.8880 245.7452 0001398  85.0314 275.1067 14.96421246 12830
COSMOS 2428             
1 31792U 07029A   26054.44649040  .00000186  00000+0  12566-3 0  9995
2 31792  70.9403 233.2400 0008264 292.4796  67.5450 14.12941600962080
SL-16 R/B               
1 31793U 07029B   26054.69673169 -.00000138  00000+0 -46473-4 0  9996
2 31793  70.9752 201.7964 0002475 280.7269  91.4451 14.14836273963399
KORONAS-FOTON           
1 33504U 09003A   26054.36853351  .00014835  00000+0  33592-3 0  9993
2 33504  82.4297 290.7635 0009970 200.5418 159.5430 15.42930270943530
CZ-2C R/B               
1 37731U 11030B   26054.65011439  .00001645  00000+0  21320-3 0  9998
2 37731  97.8520  12.1975 0053669  37.3679 140.9216 14.81159659788019
H-2A R/B                
1 38341U 12025E   26054.74111863  .00003559  00000+0  32504-3 0  9995
2 38341  98.4709  20.6758 0044869   0.3851 359.7394 14.95033071746138
SHIJIAN-16 (SJ-16)      
1 39358U 13057A   26054.88569624  .00001035  00000+0  10396-3 0  9999
2 39358  74.9716 211.2176 0016120 147.8966 212.3207 14.92277419669447
